CCSDS_OMM_VERS = 2.0
CREATION_DATE  = 
ORIGINATOR     = 

OBJECT_NAME    = STARLINK-36449
OBJECT_ID      = 2026-002D
CENTER_NAME    = EARTH
REF_FRAME      = TEME
TIME_SYSTEM    = UTC
MEAN_ELEMENT_THEORY = SGP/SGP4

EPOCH          = 2026-01-24T22:00:01.999584
MEAN_MOTION    = 15.69481503
ECCENTRICITY   = .00013985
INCLINATION    = 42.9993
RA_OF_ASC_NODE = 215.4164
ARG_OF_PERICENTER = 262.9370
MEAN_ANOMALY   = 348.6841

EPHEMERIS_TYPE = 0
CLASSIFICATION_TYPE = U
NORAD_CAT_ID   = 67308
ELEMENT_SET_NO = 999
REV_AT_EPOCH   = 444
BSTAR          = -.18037166E-1
MEAN_MOTION_DOT = -.1935813E-1
MEAN_MOTION_DDOT = 0

CCSDS_OMM_VERS = 2.0
CREATION_DATE  = 
ORIGINATOR     = 

OBJECT_NAME    = STARLINK-36482
OBJECT_ID      = 2026-002E
CENTER_NAME    = EARTH
REF_FRAME      = TEME
TIME_SYSTEM    = UTC
MEAN_ELEMENT_THEORY = SGP/SGP4

EPOCH          = 2026-01-24T20:53:34.344960
MEAN_MOTION    = 15.74117367
ECCENTRICITY   = .00237418
INCLINATION    = 42.9982
RA_OF_ASC_NODE = 215.6711
ARG_OF_PERICENTER = 282.6610
MEAN_ANOMALY   = 77.1605

EPHEMERIS_TYPE = 0
CLASSIFICATION_TYPE = U
NORAD_CAT_ID   = 67309
ELEMENT_SET_NO = 999
REV_AT_EPOCH   = 434
BSTAR          = .6575667E-2
MEAN_MOTION_DOT = .1097207E-1
MEAN_MOTION_DDOT = 0

CCSDS_OMM_VERS = 2.0
CREATION_DATE  = 
ORIGINATOR     = 

OBJECT_NAME    = STARLINK-36491
OBJECT_ID      = 2026-002F
CENTER_NAME    = EARTH
REF_FRAME      = TEME
TIME_SYSTEM    = UTC
MEAN_ELEMENT_THEORY = SGP/SGP4

EPOCH          = 2026-01-24T13:19:29.880480
MEAN_MOTION    = 15.72075249
ECCENTRICITY   = .0002977
INCLINATION    = 42.9986
RA_OF_ASC_NODE = 217.6049
ARG_OF_PERICENTER = 227.2880
MEAN_ANOMALY   = 132.7737

EPHEMERIS_TYPE = 0
CLASSIFICATION_TYPE = U
NORAD_CAT_ID   = 67310
ELEMENT_SET_NO = 999
REV_AT_EPOCH   = 429
BSTAR          = .35285999E-2
MEAN_MOTION_DOT = .506693E-2
MEAN_MOTION_DDOT = 0

CCSDS_OMM_VERS = 2.0
CREATION_DATE  = 
ORIGINATOR     = 

OBJECT_NAME    = STARLINK-36495
OBJECT_ID      = 2026-002G
CENTER_NAME    = EARTH
REF_FRAME      = TEME
TIME_SYSTEM    = UTC
MEAN_ELEMENT_THEORY = SGP/SGP4

EPOCH          = 2026-01-24T22:00:01.999584
MEAN_MOTION    = 15.69523433
ECCENTRICITY   = .00013872
INCLINATION    = 42.9994
RA_OF_ASC_NODE = 215.4119
ARG_OF_PERICENTER = 269.4033
MEAN_ANOMALY   = 344.1057

EPHEMERIS_TYPE = 0
CLASSIFICATION_TYPE = U
NORAD_CAT_ID   = 67311
ELEMENT_SET_NO = 999
REV_AT_EPOCH   = 453
BSTAR          = -.18491632E-1
MEAN_MOTION_DOT = -.1981883E-1
MEAN_MOTION_DDOT = 0

CCSDS_OMM_VERS = 2.0
CREATION_DATE  = 
ORIGINATOR     = 

OBJECT_NAME    = STARLINK-36485
OBJECT_ID      = 2026-002H
CENTER_NAME    = EARTH
REF_FRAME      = TEME
TIME_SYSTEM    = UTC
MEAN_ELEMENT_THEORY = SGP/SGP4

EPOCH          = 2026-01-24T20:54:29.127744
MEAN_MOTION    = 15.70920592
ECCENTRICITY   = .00123866
INCLINATION    = 42.9978
RA_OF_ASC_NODE = 215.6742
ARG_OF_PERICENTER = 234.7535
MEAN_ANOMALY   = 125.2174

EPHEMERIS_TYPE = 0
CLASSIFICATION_TYPE = U
NORAD_CAT_ID   = 67312
ELEMENT_SET_NO = 999
REV_AT_EPOCH   = 434
BSTAR          = -.22860171E-1
MEAN_MOTION_DOT = -.2584838E-1
MEAN_MOTION_DDOT = 0

CCSDS_OMM_VERS = 2.0
CREATION_DATE  = 
ORIGINATOR     = 

OBJECT_NAME    = STARLINK-36445
OBJECT_ID      = 2026-002J
CENTER_NAME    = EARTH
REF_FRAME      = TEME
TIME_SYSTEM    = UTC
MEAN_ELEMENT_THEORY = SGP/SGP4

EPOCH          = 2026-01-24T22:00:01.999584
MEAN_MOTION    = 15.69513371
ECCENTRICITY   = .00016768
INCLINATION    = 42.9993
RA_OF_ASC_NODE = 215.4017
ARG_OF_PERICENTER = 270.6016
MEAN_ANOMALY   = 346.7449

EPHEMERIS_TYPE = 0
CLASSIFICATION_TYPE = U
NORAD_CAT_ID   = 67313
ELEMENT_SET_NO = 999
REV_AT_EPOCH   = 453
BSTAR          = -.1836967E-1
MEAN_MOTION_DOT = -.196985E-1
MEAN_MOTION_DDOT = 0

CCSDS_OMM_VERS = 2.0
CREATION_DATE  = 
ORIGINATOR     = 

OBJECT_NAME    = STARLINK-36476
OBJECT_ID      = 2026-002K
CENTER_NAME    = EARTH
REF_FRAME      = TEME
TIME_SYSTEM    = UTC
MEAN_ELEMENT_THEORY = SGP/SGP4

EPOCH          = 2026-01-24T22:00:01.999584
MEAN_MOTION    = 15.69518052
ECCENTRICITY   = .00014444
INCLINATION    = 42.9994
RA_OF_ASC_NODE = 215.3979
ARG_OF_PERICENTER = 271.0144
MEAN_ANOMALY   = 348.2502

EPHEMERIS_TYPE = 0
CLASSIFICATION_TYPE = U
NORAD_CAT_ID   = 67314
ELEMENT_SET_NO = 999
REV_AT_EPOCH   = 438
BSTAR          = -.18446429E-1
MEAN_MOTION_DOT = -.1977263E-1
MEAN_MOTION_DDOT = 0

CCSDS_OMM_VERS = 2.0
CREATION_DATE  = 
ORIGINATOR     = 

OBJECT_NAME    = STARLINK-36463
OBJECT_ID      = 2026-002L
CENTER_NAME    = EARTH
REF_FRAME      = TEME
TIME_SYSTEM    = UTC
MEAN_ELEMENT_THEORY = SGP/SGP4

EPOCH          = 2026-01-24T22:00:01.999584
MEAN_MOTION    = 15.69521390
ECCENTRICITY   = .00014742
INCLINATION    = 42.9995
RA_OF_ASC_NODE = 215.3877
ARG_OF_PERICENTER = 273.0902
MEAN_ANOMALY   = 350.0049

EPHEMERIS_TYPE = 0
CLASSIFICATION_TYPE = U
NORAD_CAT_ID   = 67315
ELEMENT_SET_NO = 999
REV_AT_EPOCH   = 444
BSTAR          = -.18473667E-1
MEAN_MOTION_DOT = -.1980105E-1
MEAN_MOTION_DDOT = 0

CCSDS_OMM_VERS = 2.0
CREATION_DATE  = 
ORIGINATOR     = 

OBJECT_NAME    = STARLINK-36461
OBJECT_ID      = 2026-002M
CENTER_NAME    = EARTH
REF_FRAME      = TEME
TIME_SYSTEM    = UTC
MEAN_ELEMENT_THEORY = SGP/SGP4

EPOCH          = 2026-01-24T22:00:01.999584
MEAN_MOTION    = 15.69520689
ECCENTRICITY   = .00015152
INCLINATION    = 42.9994
RA_OF_ASC_NODE = 215.3825
ARG_OF_PERICENTER = 270.1278
MEAN_ANOMALY   = 354.8867

EPHEMERIS_TYPE = 0
CLASSIFICATION_TYPE = U
NORAD_CAT_ID   = 67316
ELEMENT_SET_NO = 999
REV_AT_EPOCH   = 453
BSTAR          = -.184807E-1
MEAN_MOTION_DOT = -.1980751E-1
MEAN_MOTION_DDOT = 0

CCSDS_OMM_VERS = 2.0
CREATION_DATE  = 
ORIGINATOR     = 

OBJECT_NAME    = STARLINK-36450
OBJECT_ID      = 2026-002N
CENTER_NAME    = EARTH
REF_FRAME      = TEME
TIME_SYSTEM    = UTC
MEAN_ELEMENT_THEORY = SGP/SGP4

EPOCH          = 2026-01-24T22:00:01.999584
MEAN_MOTION    = 15.69486096
ECCENTRICITY   = .00013693
INCLINATION    = 42.9994
RA_OF_ASC_NODE = 215.3782
ARG_OF_PERICENTER = 267.4548
MEAN_ANOMALY   = 359.4998

EPHEMERIS_TYPE = 0
CLASSIFICATION_TYPE = U
NORAD_CAT_ID   = 67317
ELEMENT_SET_NO = 999
REV_AT_EPOCH   = 453
BSTAR          = -.18091318E-1
MEAN_MOTION_DOT = -.194126E-1
MEAN_MOTION_DDOT = 0

CCSDS_OMM_VERS = 2.0
CREATION_DATE  = 
ORIGINATOR     = 

OBJECT_NAME    = STARLINK-36498
OBJECT_ID      = 2026-002P
CENTER_NAME    = EARTH
REF_FRAME      = TEME
TIME_SYSTEM    = UTC
MEAN_ELEMENT_THEORY = SGP/SGP4

EPOCH          = 2026-01-24T22:00:01.999584
MEAN_MOTION    = 15.69522331
ECCENTRICITY   = .00015052
INCLINATION    = 42.9994
RA_OF_ASC_NODE = 215.3676
ARG_OF_PERICENTER = 271.2830
MEAN_ANOMALY   = 359.4820

EPHEMERIS_TYPE = 0
CLASSIFICATION_TYPE = U
NORAD_CAT_ID   = 67318
ELEMENT_SET_NO = 999
REV_AT_EPOCH   = 444
BSTAR          = -.18502898E-1
MEAN_MOTION_DOT = -.1982961E-1
MEAN_MOTION_DDOT = 0

CCSDS_OMM_VERS = 2.0
CREATION_DATE  = 
ORIGINATOR     = 

OBJECT_NAME    = STARLINK-36470
OBJECT_ID      = 2026-002Q
CENTER_NAME    = EARTH
REF_FRAME      = TEME
TIME_SYSTEM    = UTC
MEAN_ELEMENT_THEORY = SGP/SGP4

EPOCH          = 2026-01-24T22:00:01.999584
MEAN_MOTION    = 15.69520312
ECCENTRICITY   = .0001559
INCLINATION    = 42.9995
RA_OF_ASC_NODE = 215.3732
ARG_OF_PERICENTER = 269.3746
MEAN_ANOMALY   = 359.4706

EPHEMERIS_TYPE = 0
CLASSIFICATION_TYPE = U
NORAD_CAT_ID   = 67319
ELEMENT_SET_NO = 999
REV_AT_EPOCH   = 444
BSTAR          = -.18444191E-1
MEAN_MOTION_DOT = -.1977309E-1
MEAN_MOTION_DDOT = 0

