STARLINK-36449          
1 67308U 26002D   26024.91668981 -.01935813  00000+0 -18037-1 0  9997
2 67308  42.9993 215.4164 0001398 262.9370 348.6841 15.69481503  4443
STARLINK-36482          
1 67309U 26002E   26024.87053640  .01097207  00000+0  65757-2 0  9999
2 67309  42.9982 215.6711 0023741 282.6610  77.1605 15.74117367  4345
STARLINK-36491          
1 67310U 26002F   26024.55520695  .00506693  00000+0  35286-2 0  9992
2 67310  42.9986 217.6049 0002977 227.2880 132.7737 15.72075249  4297
STARLINK-36495          
1 67311U 26002G   26024.91668981 -.01981883  00000+0 -18492-1 0  9994
2 67311  42.9994 215.4119 0001387 269.4033 344.1057 15.69523433  4533
STARLINK-36485          
1 67312U 26002H   26024.87117046 -.02584838  00000+0 -22860-1 0  9995
2 67312  42.9978 215.6742 0012386 234.7535 125.2174 15.70920592  4349
STARLINK-36445          
1 67313U 26002J   26024.91668981 -.01969850  00000+0 -18370-1 0  9991
2 67313  42.9993 215.4017 0001676 270.6016 346.7449 15.69513371  4530
STARLINK-36476          
1 67314U 26002K   26024.91668981 -.01977263  00000+0 -18446-1 0  9993
2 67314  42.9994 215.3979 0001444 271.0144 348.2502 15.69518052  4389
STARLINK-36463          
1 67315U 26002L   26024.91668981 -.01980105  00000+0 -18474-1 0  9994
2 67315  42.9995 215.3877 0001474 273.0902 350.0049 15.69521390  4448
STARLINK-36461          
1 67316U 26002M   26024.91668981 -.01980751  00000+0 -18481-1 0  9990
2 67316  42.9994 215.3825 0001515 270.1278 354.8867 15.69520689  4531
STARLINK-36450          
1 67317U 26002N   26024.91668981 -.01941260  00000+0 -18091-1 0  9990
2 67317  42.9994 215.3782 0001369 267.4548 359.4998 15.69486096  4539
STARLINK-36498          
1 67318U 26002P   26024.91668981 -.01982961  00000+0 -18503-1 0  9992
2 67318  42.9994 215.3676 0001505 271.2830 359.4820 15.69522331  4448
STARLINK-36470          
1 67319U 26002Q   26024.91668981 -.01977309  00000+0 -18444-1 0  9997
2 67319  42.9995 215.3732 0001559 269.3746 359.4706 15.69520312  4446
